start=new Date('2023-05-22T00:00:00.000Z').valueOf();
sats=[{"OBJECT_NAME":"STARLINK-4729","EPOCH":"2023-05-21T18:31:43.222656","RCS_SIZE":"LARGE","LAUNCH_DATE":"2022-09-11","OBJECT_TYPE":"PAYLOAD","APOAPSIS":"540.604","MEAN_MOTION_DDOT":"0.0000000000000","PERIOD":"95.438","CLASSIFICATION_TYPE":"U","BSTAR":"-0.00004930100000","TLE_LINE2":"2 53804  53.2160 170.9565 0001220  79.6784 280.4345 15.08835134 39464","COUNTRY_CODE":"US","OBJECT_ID":"2022-111AH","SEMIMAJOR_AXIS":"6917.895","EPHEMERIS_TYPE":"0","CENTER_NAME":"EARTH","ELEMENT_SET_NO":"999","MEAN_ANOMALY":"280.4345","MEAN_ELEMENT_THEORY":"SGP4","TLE_LINE1":"1 53804U 22111AH  23141.77202804 -.00001072  00000-0 -49301-4 0  9991","MEAN_MOTION":"15.08835134","REV_AT_EPOCH":"3946","REF_FRAME":"TEME","SITE":"AFETR","RA_OF_ASC_NODE":"170.9565","ECCENTRICITY":"0.00012200","INCLINATION":"53.2160","PERIAPSIS":"538.916","NORAD_CAT_ID":"53804","GP_ID":"232285298","TIME_SYSTEM":"UTC","ARG_OF_PERICENTER":"79.6784","MEAN_MOTION_DOT":"-0.00001072","DECAY_DATE":null,"FILE":"3914061"},{"TLE_LINE2":"2 53805  53.2165 163.2229 0001261  87.9847 272.1289 15.08847120 39530","COUNTRY_CODE":"US","BSTAR":"0.00007074400000","ELEMENT_SET_NO":"999","CENTER_NAME":"EARTH","EPHEMERIS_TYPE":"0","SEMIMAJOR_AXIS":"6917.859","OBJECT_ID":"2022-111AJ","LAUNCH_DATE":"2022-09-11","RCS_SIZE":"LARGE","EPOCH":"2023-05-21T08:01:06.255552","OBJECT_NAME":"STARLINK-4763","CLASSIFICATION_TYPE":"U","PERIOD":"95.437","APOAPSIS":"540.596","MEAN_MOTION_DDOT":"0.0000000000000","OBJECT_TYPE":"PAYLOAD","TIME_SYSTEM":"UTC","ARG_OF_PERICENTER":"87.9847","GP_ID":"232250077","NORAD_CAT_ID":"53805","FILE":"3913738","DECAY_DATE":null,"MEAN_MOTION_DOT":"0.00000838","REF_FRAME":"TEME","REV_AT_EPOCH":"3953","MEAN_MOTION":"15.08847120","TLE_LINE1":"1 53805U 22111AJ  23141.33410018  .00000838  00000-0  70744-4 0  9994","MEAN_ANOMALY":"272.1289","MEAN_ELEMENT_THEORY":"SGP4","PERIAPSIS":"538.851","INCLINATION":"53.2165","ECCENTRICITY":"0.00012610","RA_OF_ASC_NODE":"163.2229","SITE":"AFETR"},{"ECCENTRICITY":"0.00011820","RA_OF_ASC_NODE":"161.0036","SITE":"AFETR","PERIAPSIS":"538.936","INCLINATION":"53.2159","MEAN_MOTION":"15.08837244","TLE_LINE1":"1 53806U 22111AK  23141.77568100  .00000029  00000-0  19915-4 0  9994","MEAN_ELEMENT_THEORY":"SGP4","MEAN_ANOMALY":"279.3732","REF_FRAME":"TEME","REV_AT_EPOCH":"3960","MEAN_MOTION_DOT":"0.00000029","FILE":"3914061","DECAY_DATE":null,"GP_ID":"232283796","NORAD_CAT_ID":"53806","TIME_SYSTEM":"UTC","ARG_OF_PERICENTER":"80.7394","CLASSIFICATION_TYPE":"U","PERIOD":"95.438","MEAN_MOTION_DDOT":"0.0000000000000","APOAPSIS":"540.572","OBJECT_TYPE":"PAYLOAD","RCS_SIZE":"LARGE","EPOCH":"2023-05-21T18:36:58.838400","OBJECT_NAME":"STARLINK-4768","LAUNCH_DATE":"2022-09-11","EPHEMERIS_TYPE":"0","SEMIMAJOR_AXIS":"6917.889","OBJECT_ID":"2022-111AK","ELEMENT_SET_NO":"999","CENTER_NAME":"EARTH","COUNTRY_CODE":"US","TLE_LINE2":"2 53806  53.2159 161.0036 0001182  80.7394 279.3732 15.08837244 39602","BSTAR":"0.00001991500000"},{"TIME_SYSTEM":"UTC","ARG_OF_PERICENTER":"321.8042","NORAD_CAT_ID":"53818","GP_ID":"232284548","DECAY_DATE":null,"FILE":"3914061","MEAN_MOTION_DOT":"0.00031342","REV_AT_EPOCH":"3856","REF_FRAME":"TEME","MEAN_ANOMALY":"38.2619","MEAN_ELEMENT_THEORY":"SGP4","TLE_LINE1":"1 53818U 22114A   23141.92009133  .00031342  00000-0  15794-2 0  9994","MEAN_MOTION":"15.16917994","INCLINATION":"53.2152","PERIAPSIS":"511.921","SITE":"AFETR","RA_OF_ASC_NODE":"213.0474","ECCENTRICITY":"0.00047040","BSTAR":"0.00157940000000","TLE_LINE2":"2 53818  53.2152 213.0474 0004704 321.8042  38.2619 15.16917994 38564","COUNTRY_CODE":"US","CENTER_NAME":"EARTH","ELEMENT_SET_NO":"999","OBJECT_ID":"2022-114A","SEMIMAJOR_AXIS":"6893.299","EPHEMERIS_TYPE":"0","LAUNCH_DATE":"2022-09-19","OBJECT_NAME":"STARLINK-4749","EPOCH":"2023-05-21T22:04:55.890912","RCS_SIZE":"LARGE","OBJECT_TYPE":"PAYLOAD","APOAPSIS":"518.406","MEAN_MOTION_DDOT":"0.0000000000000","PERIOD":"94.929","CLASSIFICATION_TYPE":"U"},{"ELEMENT_SET_NO":"999","CENTER_NAME":"EARTH","EPHEMERIS_TYPE":"0","SEMIMAJOR_AXIS":"6917.898","OBJECT_ID":"2022-114B","COUNTRY_CODE":"US","TLE_LINE2":"2 53819  53.2157 215.7507 0000953  89.5222 270.5879 15.08834265 38420","BSTAR":"0.00000551020000","CLASSIFICATION_TYPE":"U","PERIOD":"95.438","APOAPSIS":"540.422","MEAN_MOTION_DDOT":"0.0000000000000","OBJECT_TYPE":"PAYLOAD","LAUNCH_DATE":"2022-09-19","RCS_SIZE":"LARGE","EPOCH":"2023-05-21T21:49:51.280320","OBJECT_NAME":"STARLINK-4738","FILE":"3914061","DECAY_DATE":null,"MEAN_MOTION_DOT":"-0.00000200","TIME_SYSTEM":"UTC","ARG_OF_PERICENTER":"89.5222","GP_ID":"232285299","NORAD_CAT_ID":"53819","PERIAPSIS":"539.104","INCLINATION":"53.2157","ECCENTRICITY":"0.00009530","RA_OF_ASC_NODE":"215.7507","SITE":"AFETR","REF_FRAME":"TEME","REV_AT_EPOCH":"3842","MEAN_MOTION":"15.08834265","TLE_LINE1":"1 53819U 22114B   23141.90962130 -.00000200  00000-0  55102-5 0  9998","MEAN_ELEMENT_THEORY":"SGP4","MEAN_ANOMALY":"270.5879"},{"OBJECT_TYPE":"PAYLOAD","APOAPSIS":"540.380","MEAN_MOTION_DDOT":"0.0000000000000","PERIOD":"95.438","CLASSIFICATION_TYPE":"U","OBJECT_NAME":"STARLINK-4758","EPOCH":"2023-05-21T21:53:46.913856","RCS_SIZE":"LARGE","LAUNCH_DATE":"2022-09-19","OBJECT_ID":"2022-114C","SEMIMAJOR_AXIS":"6917.897","EPHEMERIS_TYPE":"0","CENTER_NAME":"EARTH","ELEMENT_SET_NO":"999","BSTAR":"0.00002111600000","COUNTRY_CODE":"US","TLE_LINE2":"2 53820  53.2155 215.7677 0000893 103.4088 256.7004 15.08834552 38422","SITE":"AFETR","RA_OF_ASC_NODE":"215.7677","ECCENTRICITY":"0.00008930","INCLINATION":"53.2155","PERIAPSIS":"539.144","MEAN_ELEMENT_THEORY":"SGP4","MEAN_ANOMALY":"256.7004","TLE_LINE1":"1 53820U 22114C   23141.91234854  .00000048  00000-0  21116-4 0  9992","MEAN_MOTION":"15.08834552","REV_AT_EPOCH":"3842","REF_FRAME":"TEME","MEAN_MOTION_DOT":"0.00000048","DECAY_DATE":null,"FILE":"3914061","NORAD_CAT_ID":"53820","GP_ID":"232283547","TIME_SYSTEM":"UTC","ARG_OF_PERICENTER":"103.4088"},{"ARG_OF_PERICENTER":"77.1493","TIME_SYSTEM":"UTC","GP_ID":"232250330","NORAD_CAT_ID":"53821","FILE":"3913738","DECAY_DATE":null,"MEAN_MOTION_DOT":"-0.00000265","REF_FRAME":"TEME","REV_AT_EPOCH":"3911","MEAN_MOTION":"15.08839703","TLE_LINE1":"1 53821U 22114D   23141.33134980 -.00000265  00000-0  14056-5 0  9996","MEAN_ELEMENT_THEORY":"SGP4","MEAN_ANOMALY":"282.9632","PERIAPSIS":"538.926","INCLINATION":"53.2168","ECCENTRICITY":"0.00011860","RA_OF_ASC_NODE":"162.9677","SITE":"AFETR","TLE_LINE2":"2 53821  53.2168 162.9677 0001186  77.1493 282.9632 15.08839703 39111","COUNTRY_CODE":"US","BSTAR":"0.00000140560000","ELEMENT_SET_NO":"999","CENTER_NAME":"EARTH","EPHEMERIS_TYPE":"0","SEMIMAJOR_AXIS":"6917.881","OBJECT_ID":"2022-114D","LAUNCH_DATE":"2022-09-19","RCS_SIZE":"LARGE","EPOCH":"2023-05-21T07:57:08.622720","OBJECT_NAME":"STARLINK-4752","CLASSIFICATION_TYPE":"U","PERIOD":"95.438","APOAPSIS":"540.567","MEAN_MOTION_DDOT":"0.0000000000000","OBJECT_TYPE":"PAYLOAD"},{"ECCENTRICITY":"0.00012570","RA_OF_ASC_NODE":"170.9512","SITE":"AFETR","PERIAPSIS":"538.867","INCLINATION":"53.2160","MEAN_MOTION":"15.08842967","TLE_LINE1":"1 53823U 22114F   23141.81893177  .00000361  00000-0  40791-4 0  9991","MEAN_ANOMALY":"281.6274","MEAN_ELEMENT_THEORY":"SGP4","REF_FRAME":"TEME","REV_AT_EPOCH":"3904","MEAN_MOTION_DOT":"0.00000361","FILE":"3914061","DECAY_DATE":null,"GP_ID":"232285049","NORAD_CAT_ID":"53823","ARG_OF_PERICENTER":"78.4860","TIME_SYSTEM":"UTC","CLASSIFICATION_TYPE":"U","PERIOD":"95.437","APOAPSIS":"540.606","MEAN_MOTION_DDOT":"0.0000000000000","OBJECT_TYPE":"PAYLOAD","RCS_SIZE":"LARGE","EPOCH":"2023-05-21T19:39:15.704928","OBJECT_NAME":"STARLINK-4748","LAUNCH_DATE":"2022-09-19","EPHEMERIS_TYPE":"0","SEMIMAJOR_AXIS":"6917.871","OBJECT_ID":"2022-114F","ELEMENT_SET_NO":"999","CENTER_NAME":"EARTH","COUNTRY_CODE":"US","TLE_LINE2":"2 53823  53.2160 170.9512 0001257  78.4860 281.6274 15.08842967 39049","BSTAR":"0.00004079100000"},{"FILE":"3914061","DECAY_DATE":null,"MEAN_MOTION_DOT":"-0.00004251","ARG_OF_PERICENTER":"79.0829","TIME_SYSTEM":"UTC","GP_ID":"232284799","NORAD_CAT_ID":"53824","INCLINATION":"53.2171","PERIAPSIS":"539.066","ECCENTRICITY":"0.00010680","SITE":"AFETR","RA_OF_ASC_NODE":"215.7020","REF_FRAME":"TEME","REV_AT_EPOCH":"3833","TLE_LINE1":"1 53824U 22114G   23141.90130186 -.00004251  00000-0 -24933-3 0  9999","MEAN_MOTION":"15.08820547","MEAN_ANOMALY":"281.0283","MEAN_ELEMENT_THEORY":"SGP4","ELEMENT_SET_NO":"999","CENTER_NAME":"EARTH","EPHEMERIS_TYPE":"0","OBJECT_ID":"2022-114G","SEMIMAJOR_AXIS":"6917.940","TLE_LINE2":"2 53824  53.2171 215.7020 0001068  79.0829 281.0283 15.08820547 38331","COUNTRY_CODE":"US","BSTAR":"-0.00024933000000","PERIOD":"95.439","CLASSIFICATION_TYPE":"U","OBJECT_TYPE":"PAYLOAD","MEAN_MOTION_DDOT":"0.0000000000000","APOAPSIS":"540.544","LAUNCH_DATE":"2022-09-19","EPOCH":"2023-05-21T21:37:52.480704","RCS_SIZE":"LARGE","OBJECT_NAME":"STARLINK-4757"},{"MEAN_MOTION_DOT":"-0.00000002","FILE":"3914061","DECAY_DATE":null,"GP_ID":"232284048","NORAD_CAT_ID":"53825","TIME_SYSTEM":"UTC","ARG_OF_PERICENTER":"96.3089","ECCENTRICITY":"0.00010750","RA_OF_ASC_NODE":"215.7248","SITE":"AFETR","PERIAPSIS":"539.000","INCLINATION":"53.2154","MEAN_MOTION":"15.08840649","TLE_LINE1":"1 53825U 22114H   23141.90497040 -.00000002  00000-0  17980-4 0  9999","MEAN_ANOMALY":"263.8025","MEAN_ELEMENT_THEORY":"SGP4","REF_FRAME":"TEME","REV_AT_EPOCH":"3842","EPHEMERIS_TYPE":"0","SEMIMAJOR_AXIS":"6917.878","OBJECT_ID":"2022-114H","ELEMENT_SET_NO":"999","CENTER_NAME":"EARTH","COUNTRY_CODE":"US","TLE_LINE2":"2 53825  53.2154 215.7248 0001075  96.3089 263.8025 15.08840649 38420","BSTAR":"0.00001798000000","CLASSIFICATION_TYPE":"U","PERIOD":"95.438","MEAN_MOTION_DDOT":"0.0000000000000","APOAPSIS":"540.487","OBJECT_TYPE":"PAYLOAD","RCS_SIZE":"LARGE","EPOCH":"2023-05-21T21:43:09.442560","OBJECT_NAME":"STARLINK-4751","LAUNCH_DATE":"2022-09-19"}];
